NORAD_CAT_ID,OBJECT_NAME,OBJECT_TYPE,EPOCH,MEAN_MOTION,ECCENTRICITY,INCLINATION,RA_OF_ASC_NODE,ARG_OF_PERICENTER,MEAN_ANOMALY,BSTAR,MEAN_MOTION_DOT,MEAN_MOTION_DDOT,TLE_LINE0,TLE_LINE1,TLE_LINE2,SEMIMAJOR_AXIS,PERIOD,APOGEE,PERIGEE,DECAYED
56791.0,STARLINK-5977,PAYLOAD,2023-10-05 22:00:00,15.12323246,0.0003361,70.0004,58.0613,275.7446,76.9309,-0.057474,-0.00923369,0.0,0 STARLINK-5977,1 56791U 23078AA  23278.91667824 -.00923369  00000-0 -57474-1 0  9995,2 56791  70.0004  58.0613 0003361 275.7446  76.9309 15.12323246  5998,6907.254,95.218,531.44,526.797,0.0
56791.0,STARLINK-5977,PAYLOAD,2023-10-06 04:00:00,15.11812699,0.0003194,70.0006,57.4174,269.5239,3.6313,-0.056496,-0.00896795,0.0,0 STARLINK-5977,1 56791U 23078AA  23279.16667824 -.00896795  00000-0 -56496-1 0  9998,2 56791  70.0006  57.4174 0003194 269.5239   3.6313 15.11812699 20296,6908.809,95.25,532.881,528.467,0.0
56791.0,STARLINK-5977,PAYLOAD,2023-10-06 14:00:01,15.11030301,0.0003333,70.0008,56.3452,272.0554,107.6277,-0.061091,-0.00944979,0.0,0 STARLINK-5977,1 56791U 23078AA  23279.58335648 -.00944979  00000-0 -61091-1 0  9995,2 56791  70.0008  56.3452 0003333 272.0554 107.6277 15.11030301  6109,6911.194,95.299,535.362,530.755,0.0
56791.0,STARLINK-5977,PAYLOAD,2023-10-06 20:00:01,15.1051112,0.0003295,70.0006,55.7029,274.466,24.4619,-0.058198,-0.0089141,0.0,0 STARLINK-5977,1 56791U 23078AA  23279.83334491 -.00891410  00000-0 -58198-1 0  9993,2 56791  70.0006  55.7029 0003295 274.4660  24.4619 15.10511120 20396,6912.777,95.332,536.92,532.364,0.0
56791.0,STARLINK-5977,PAYLOAD,2023-10-06 22:00:01,15.10368583,0.0003324,70.0003,55.4891,276.3015,115.6838,-0.060976,-0.00927433,0.0,0 STARLINK-5977,1 56791U 23078AA  23279.91668981 -.00927433  00000-0 -60976-1 0  9998,2 56791  70.0003  55.4891 0003324 276.3015 115.6838 15.10368583  6152,6913.212,95.341,537.375,532.779,0.0
56791.0,STARLINK-5977,PAYLOAD,2023-10-07 12:00:00,15.0924377,0.0003312,70.0007,53.9913,269.3217,52.2377,-0.064475,-0.00948921,0.0,0 STARLINK-5977,1 56791U 23078AA  23280.50001157 -.00948921  00000-0 -64475-1 0  9994,2 56791  70.0007  53.9913 0003312 269.3217  52.2377 15.09243770 20492,6916.647,95.412,540.802,536.221,0.0
56791.0,STARLINK-5977,PAYLOAD,2023-10-07 14:00:01,15.09071811,0.0003308,70.0007,53.7777,272.7074,141.4695,-0.064364,-0.00943272,0.0,0 STARLINK-5977,1 56791U 23078AA  23280.58334491 -.00943272  00000-0 -64364-1 0  9993,2 56791  70.0007  53.7777 0003308 272.7074 141.4695 15.09071811  5999,6917.172,95.423,541.325,536.749,0.0
56791.0,STARLINK-5977,PAYLOAD,2023-10-07 22:00:00,15.08413676,0.000331,70.0003,52.9235,276.8897,147.2401,-0.064584,-0.00930563,0.0,0 STARLINK-5977,1 56791U 23078AA  23280.91667824 -.00930563  00000-0 -64584-1 0  9992,2 56791  70.0003  52.9235 0003310 276.8897 147.2401 15.08413676  5836,6919.184,95.465,543.339,538.759,0.0
56791.0,STARLINK-5977,PAYLOAD,2023-10-08 12:00:00,15.07286039,0.0003294,70.0007,51.4309,270.2931,79.3678,-0.068029,-0.00948957,0.0,0 STARLINK-5977,1 56791U 23078AA  23281.50001157 -.00948957  00000-0 -68029-1 0  9993,2 56791  70.0007  51.4309 0003294 270.2931  79.3678 15.07286039 20641,6922.634,95.536,546.78,542.219,0.0
56791.0,STARLINK-5977,PAYLOAD,2023-10-08 14:00:01,15.07110723,0.0003241,70.0007,51.2179,273.3832,168.3093,-0.06742,-0.00936941,0.0,0 STARLINK-5977,1 56791U 23078AA  23281.58334491 -.00936941  00000-0 -67420-1 0  9995,2 56791  70.0007  51.2179 0003241 273.3832 168.3093 15.07110723  5942,6923.171,95.547,547.28,542.792,0.0
56791.0,STARLINK-5977,PAYLOAD,2023-10-08 22:00:00,15.06459384,0.0003239,70.0003,50.3663,277.255,172.0416,-0.06854,-0.00935882,0.0,0 STARLINK-5977,1 56791U 23078AA  23281.91667824 -.00935882  00000-0 -68540-1 0  9998,2 56791  70.0003  50.3663 0003239 277.2550 172.0416 15.06459384  5997,6925.167,95.588,549.275,544.788,0.0
56791.0,STARLINK-5977,PAYLOAD,2023-10-09 12:00:00,15.05328457,0.0003291,70.0009,48.8783,271.4499,99.2714,-0.07183,-0.00950102,0.0,0 STARLINK-5977,1 56791U 23078AA  23282.50001157 -.00950102  00000-0 -71830-1 0  9993,2 56791  70.0009  48.8783 0003291 271.4499  99.2714 15.05328457 20795,6928.635,95.66,552.78,548.219,0.0
56791.0,STARLINK-5977,PAYLOAD,2023-10-09 14:00:01,15.05151061,0.0003228,70.0008,48.6659,273.6867,188.4803,-0.070786,-0.00933179,0.0,0 STARLINK-5977,1 56791U 23078AA  23282.58334491 -.00933179  00000-0 -70786-1 0  9995,2 56791  70.0008  48.6659 0003228 273.6867 188.4803 15.05151061  5920,6929.179,95.671,553.281,548.807,0.0
56791.0,STARLINK-5977,PAYLOAD,2023-10-09 22:00:00,15.0450665,0.0003177,70.0006,47.8169,276.99,190.4331,-0.072846,-0.00943022,0.0,0 STARLINK-5977,1 56791U 23078AA  23282.91667824 -.00943022  00000-0 -72846-1 0  9998,2 56791  70.0006  47.8169 0003177 276.9900 190.4331 15.04506650  5973,6931.157,95.712,555.225,550.82,0.0
56791.0,STARLINK-5977,PAYLOAD,2023-10-10 06:00:02,15.03813189,0.0003149,70.0009,46.9689,271.3827,200.5895,-0.06789,-0.00868271,0.0,0 STARLINK-5977,1 56791U 23078AA  23283.25002315 -.00868271  00000-0 -67890-1 0  9999,2 56791  70.0009  46.9689 0003149 271.3827 200.5895 15.03813189 20904,6933.288,95.757,557.336,552.97,0.0
56791.0,STARLINK-5977,PAYLOAD,2023-10-10 14:00:01,15.03189354,0.0003188,70.001,46.1218,274.6215,200.9806,-0.073965,-0.00925728,0.0,0 STARLINK-5977,1 56791U 23078AA  23283.58334491 -.00925728  00000-0 -73965-1 0  9999,2 56791  70.0010  46.1218 0003188 274.6215 200.9806 15.03189354  5983,6935.206,95.796,559.282,554.86,0.0
56791.0,STARLINK-5977,PAYLOAD,2023-10-10 22:00:01,15.02552241,0.0003136,70.0008,45.2752,277.8738,200.6966,-0.07721,-0.00959207,0.0,0 STARLINK-5977,1 56791U 23078AA  23283.91668981 -.00959207  00000-0 -77210-1 0  9996,2 56791  70.0008  45.2752 0003136 277.8738 200.6966 15.02552241 21004,6937.167,95.837,561.207,556.856,0.0
56791.0,STARLINK-5977,PAYLOAD,2023-10-11 14:00:01,15.01229256,0.0003173,70.0013,43.5853,275.7694,206.226,-0.07741,-0.00920176,0.0,0 STARLINK-5977,1 56791U 23078AA  23284.58334491 -.00920176  00000-0 -77410-1 0  9991,2 56791  70.0013  43.5853 0003173 275.7694 206.2260 15.01229256 21108,6941.242,95.921,565.309,560.904,0.0
56791.0,STARLINK-5977,PAYLOAD,2023-10-12 14:00:01,14.99296929,0.0002959,70.0016,41.0566,276.5492,204.8025,-0.00047091,-5.85e-05,0.0,0 STARLINK-5977,1 56791U 23078AA  23285.58334491 -.00005850  00000-0 -47091-3 0  9999,2 56791  70.0016  41.0566 0002959 276.5492 204.8025 14.99296929 21257,6947.204,96.045,571.125,567.014,0.0
56791.0,STARLINK-5977,PAYLOAD,2023-10-12 22:00:01,14.99272925,0.0002831,70.0014,40.2147,275.3797,204.7264,-0.00092148,-0.00011343,0.0,0 STARLINK-5977,1 56791U 23078AA  23285.91668981 -.00011343  00000-0 -92148-3 0  9997,2 56791  70.0014  40.2147 0002831 275.3797 204.7264 14.99272925  5767,6947.279,96.047,571.11,567.177,0.0
56791.0,STARLINK-5977,PAYLOAD,2023-10-13 14:00:01,14.99322572,0.000288,70.0018,38.5316,274.7676,202.5303,-0.0034262,-0.00041792,0.0,0 STARLINK-5977,1 56791U 23078AA  23286.58334491 -.00041792  00000-0 -34262-2 0  9990,2 56791  70.0018  38.5316 0002880 274.7676 202.5303 14.99322572 21405,6947.125,96.043,570.991,566.989,0.0
56791.0,STARLINK-5977,PAYLOAD,2023-10-13 22:00:00,14.99305889,0.0002836,70.0016,37.6897,273.984,201.985,-0.0022946,-0.00028062,0.0,0 STARLINK-5977,1 56791U 23078AA  23286.91667824 -.00028062  00000-0 -22946-2 0  9997,2 56791  70.0016  37.6897 0002836 273.9840 201.9850 14.99305889  5912,6947.177,96.044,571.012,567.071,0.0
56791.0,STARLINK-5977,PAYLOAD,2023-10-14 04:00:00,14.99256102,0.0002879,70.0019,37.0585,267.2902,117.6717,0.008385,0.00103917,0.0,0 STARLINK-5977,1 56791U 23078AA  23287.16667824  .00103917  00000-0  83850-2 0  9997,2 56791  70.0019  37.0585 0002879 267.2902 117.6717 14.99256102 21494,6947.33,96.048,571.196,567.195,0.0
56791.0,STARLINK-5977,PAYLOAD,2023-10-14 14:00:01,14.99340777,0.0002981,70.0021,36.0065,270.8246,202.4899,-0.0067994,-0.00082408,0.0,0 STARLINK-5977,1 56791U 23078AA  23287.58335648 -.00082408  00000-0 -67994-2 0  9993,2 56791  70.0021  36.0065 0002981 270.8246 202.4899 14.99340777 21557,6947.069,96.042,571.005,566.863,0.0
56791.0,STARLINK-5977,PAYLOAD,2023-10-14 22:00:00,14.99310239,0.0003092,70.0019,35.1647,271.06,200.8443,-0.005948,-0.00072149,0.0,0 STARLINK-5977,1 56791U 23078AA  23287.91667824 -.00072149  00000-0 -59480-2 0  9996,2 56791  70.0019  35.1647 0003092 271.0600 200.8443 14.99310239  5965,6947.163,96.044,571.176,566.88,0.0
56791.0,STARLINK-5977,PAYLOAD,2023-10-15 04:00:00,14.99431721,0.0003283,70.0021,34.5333,266.113,114.7415,-0.053483,-0.00616778,0.0,0 STARLINK-5977,1 56791U 23078AA  23288.16667824 -.00616778  00000-0 -53483-1 0  9992,2 56791  70.0021  34.5333 0003283 266.1130 114.7415 14.99431721 21643,6946.788,96.036,570.934,566.372,0.0
56791.0,STARLINK-5977,PAYLOAD,2023-10-15 12:00:00,14.98920699,0.0003332,70.0023,33.6919,267.6448,111.7765,-0.066327,-0.00752976,0.0,0 STARLINK-5977,1 56791U 23078AA  23288.50001157 -.00752976  00000-0 -66327-1 0  9993,2 56791  70.0023  33.6919 0003332 267.6448 111.7765 14.98920699 21694,6948.367,96.069,572.547,567.917,0.0
56791.0,STARLINK-5977,PAYLOAD,2023-10-15 14:00:01,14.9865307,0.0003315,70.0022,33.4816,268.5959,200.3895,-0.039461,-0.00449929,0.0,0 STARLINK-5977,1 56791U 23078AA  23288.58334491 -.00449929  00000-0 -39461-1 0  9991,2 56791  70.0022  33.4816 0003315 268.5959 200.3895 14.98653070  5906,6949.194,96.086,573.363,568.755,0.0
56791.0,STARLINK-5977,PAYLOAD,2023-10-15 20:00:01,14.98341723,0.0003402,70.002,32.851,270.8651,106.4761,-0.0025035,-0.00029847,0.0,0 STARLINK-5977,1 56791U 23078AA  23288.83335648 -.00029847  00000-0 -25035-2 0  9990,2 56791  70.0020  32.8510 0003402 270.8651 106.4761 14.98341723 21747,6950.157,96.106,574.386,569.657,0.0
56791.0,STARLINK-5977,PAYLOAD,2023-10-15 22:00:00,14.98347064,0.0003375,70.002,32.6409,269.6585,196.9903,-0.0042552,-0.00050525,0.0,0 STARLINK-5977,1 56791U 23078AA  23288.91667824 -.00050525  00000-0 -42552-2 0  9993,2 56791  70.0020  32.6409 0003375 269.6585 196.9903 14.98347064  5954,6950.14,96.106,574.351,569.659,0.0
